STARLINK-30441          
1 57869U 23144F   26067.99352673 -.00000376  00000+0 -43216-5 0  9992
2 57869  42.9993 288.8591 0001239 270.5362  89.5347 15.26742636137496
2025-155V               
1 64895U 25155V   26068.85787115  .00013705  00000+0  51002-3 0  9990
2 64895  97.4485  37.2490 0008035 152.8264 207.3397 15.27583301 65579
